BEIDOU-3 M14 (C33)      
1 43623U 18072B   26134.03606905 -.00000037  00000+0  00000+0 0  9990
2 43623  56.5980  63.7808 0006648 347.7176  12.2477  1.86231503 52014
BEIDOU-3 M16 (C35)      
1 43647U 18078A   26132.58110638 -.00000042  00000+0  00000+0 0  9999
2 43647  54.1235 301.2337 0007880  39.7391 320.3068  1.86232272 51494
BEIDOU-3 M15 (C34)      
1 43648U 18078B   26134.32123487 -.00000049  00000+0  00000+0 0  9997
2 43648  54.1178 301.1735 0004984  52.5299 307.4971  1.86232505 51548
BEIDOU-3 G1 (C59)       
1 43683U 18085A   26133.70890306 -.00000093  00000+0  00000+0 0  9995
2 43683   2.9862  98.2826 0007539 339.3962 208.9822  1.00272631 27717
BEIDOU-3 M17 (C36)      
1 43706U 18093A   26131.35359073  .00000068  00000+0  00000+0 0  9991
2 43706  54.1670 183.5464 0009480 290.8488 131.5748  1.86228417 50852
BEIDOU-3 M18 (C37)      
1 43707U 18093B   26132.73439434  .00000084  00000+0  00000+0 0  9993
2 43707  54.1678 183.4917 0007396 321.8656  38.1678  1.86226542 50872
BEIDOU-3 IGSO-1 (C38)   
1 44204U 19023A   26132.76772565 -.00000227  00000+0  00000+0 0  9998
2 44204  58.6468  38.0171 0023856 234.3090 349.8662  1.00250503  6851
BEIDOU-2 G8 (C01)       
1 44231U 19027A   26134.91787435 -.00000233  00000+0  00000+0 0  9990
2 44231   1.5730  74.4288 0010780 281.4336 351.7661  1.00272471 25749
BEIDOU-3 IGSO-2 (C39)   
1 44337U 19035A   26132.65390358 -.00000046  00000+0  00000+0 0  9991
2 44337  55.2385 159.1745 0039680 215.7907 210.7620  1.00277740 25317
BEIDOU-3 M24 (C46)      
1 44542U 19061A   26134.95132601  .00000098  00000+0  00000+0 0  9994
2 44542  54.3947 183.8491 0008084   2.8875 357.2118  1.86229259 45175
BEIDOU-3 M23 (C45)      
1 44543U 19061B   26134.17973947  .00000096  00000+0  00000+0 0  9993
2 44543  54.3932 183.8436 0005229 341.9949 132.6039  1.86227353 45165
BEIDOU-3 IGSO-3 (C40)   
1 44709U 19073A   26120.85038409 -.00000212  00000+0  00000+0 0  9996
2 44709  54.8842 281.4069 0042404 188.8195 170.9972  1.00251230 23982
BEIDOU-3 M22 (C44)      
1 44793U 19078A   26133.17974627 -.00000045  00000+0  00000+0 0  9998
2 44793  53.9691 301.0594 0007131  47.8476 312.1989  1.86227440 43994
BEIDOU-3 M21 (C43)      
1 44794U 19078B   26130.09800295 -.00000037  00000+0  00000+0 0  9997
2 44794  53.9450 301.1295 0004992  44.9662 315.0658  1.86228028 43947
BEIDOU-3 M19 (C41)      
1 44864U 19090A   26134.37148076 -.00000039  00000+0  00000+0 0  9998
2 44864  56.5302  63.9086 0019040 296.9236 245.2774  1.86231675 43605
BEIDOU-3 M20 (C42)      
1 44865U 19090B   26134.77357859 -.00000040  00000+0  00000+0 0  9996
2 44865  56.5323  63.9300 0016805 309.7511 231.6338  1.86231584 43595
BEIDOU-3 G2 (C60)       
1 45344U 20017A   26134.83383641 -.00000127  00000+0  00000+0 0  9991
2 45344   2.7969  46.8187 0002501   9.5553 196.4332  1.00272271 22929
BEIDOU-3 G3 (C61)       
1 45807U 20040A   26134.91120100 -.00000340  00000+0  00000+0 0  9996
2 45807   2.3650  67.3543 0003230 333.7763 270.0968  1.00274239 21733
BEIDOU-3 G4 (C62)       
1 56564U 23066A   26134.91700769 -.00000268  00000+0  00000+0 0  9993
2 56564   0.5308 323.5582 0003523 173.4149 205.7995  1.00275560 11065
BEIDOU-3 M28 (C50)      
1 58654U 23207A   26132.32302171 -.00000030  00000+0  00000+0 0  9997
2 58654  55.7225  63.5128 0004245 330.2096  29.7521  1.86229701 16176
BEIDOU-3 M26 (C48)      
1 58655U 23207B   26133.19442925 -.00000035  00000+0  00000+0 0  9991
2 58655  55.7254  63.4698 0004439 309.9196  50.0251  1.86229676 16177
BEIDOU-3 M25 (C47)      
1 61186U 24168B   26134.63464834 -.00000050  00000+0  00000+0 0  9991
2 61186  54.5046 303.4082 0003091 312.9703  49.8050  1.86229921 11161
BEIDOU-3 M27 (C49)      
1 61187U 24168C   26133.36745762 -.00000045  00000+0  00000+0 0  9997
2 61187  54.5014 303.4354 0002241  43.5716 324.6381  1.86230101  8615
